NORAD_CAT_ID,OBJECT_NAME,OBJECT_TYPE,EPOCH,MEAN_MOTION,ECCENTRICITY,INCLINATION,RA_OF_ASC_NODE,ARG_OF_PERICENTER,MEAN_ANOMALY,BSTAR,MEAN_MOTION_DOT,MEAN_MOTION_DDOT,TLE_LINE0,TLE_LINE1,TLE_LINE2,SEMIMAJOR_AXIS,PERIOD,APOGEE,PERIGEE,DECAYED
54777.0,STARLINK-5468,PAYLOAD,2023-05-08 23:19:02,15.08855007,9.28e-05,53.2179,13.4366,97.3846,262.7252,0.00071876,0.00011174,0.0,0 STARLINK-5468,1 54777U 22175V   23128.97156231  .00011174  00000-0  71876-3 0  9993,2 54777  53.2179  13.4366 0000928  97.3846 262.7252 15.08855007 21400,6917.835,95.437,540.341,539.058,0.0
54777.0,STARLINK-5468,PAYLOAD,2023-05-09 23:09:50,15.08845997,8.18e-05,53.2175,8.9766,89.6945,270.4141,0.00020494,2.976e-05,0.0,0 STARLINK-5468,1 54777U 22175V   23129.96516267  .00002976  00000-0  20494-3 0  9992,2 54777  53.2175   8.9766 0000818  89.6945 270.4141 15.08845997 23717,6917.862,95.437,540.293,539.161,0.0
54777.0,STARLINK-5468,PAYLOAD,2023-05-10 23:00:36,15.08850614,0.0001074,53.2171,4.5189,126.4306,233.6785,0.00021961,3.21e-05,0.0,0 STARLINK-5468,1 54777U 22175V   23130.95875804  .00003210  00000-0  21961-3 0  9990,2 54777  53.2171   4.5189 0001074 126.4306 233.6785 15.08850614 23863,6917.848,95.437,540.456,538.97,0.0
54777.0,STARLINK-5468,PAYLOAD,2023-05-11 21:16:01,15.08839476,8.45e-05,53.2172,0.3536,100.6615,259.4472,0.0001157,1.554e-05,0.0,0 STARLINK-5468,1 54777U 22175V   23131.88612682  .00001554  00000-0  11570-3 0  9990,2 54777  53.2172   0.3536 0000845 100.6615 259.4472 15.08839476 21844,6917.882,95.438,540.332,539.162,0.0
54777.0,STARLINK-5468,PAYLOAD,2023-05-11 22:51:24,15.08840258,8.74e-05,53.2173,0.0559,98.9415,261.1676,0.00012003,1.623e-05,0.0,0 STARLINK-5468,1 54777U 22175V   23131.95236606  .00001623  00000-0  12003-3 0  9995,2 54777  53.2173   0.0559 0000874  98.9415 261.1676 15.08840258 24014,6917.88,95.438,540.349,539.14,0.0
54777.0,STARLINK-5468,PAYLOAD,2023-05-12 21:06:48,15.08840673,9.19e-05,53.2167,355.893,93.9306,266.1792,0.0001151,1.545e-05,0.0,0 STARLINK-5468,1 54777U 22175V   23132.87973019  .00001545  00000-0  11510-3 0  9998,2 54777  53.2167 355.8930 0000919  93.9306 266.1792 15.08840673 24155,6917.878,95.438,540.379,539.108,0.0
54777.0,STARLINK-5468,PAYLOAD,2023-05-13 19:22:12,15.08845562,0.0001137,53.2176,351.7255,72.8135,287.2982,0.00025502,3.774e-05,0.0,0 STARLINK-5468,1 54777U 22175V   23133.80709002  .00003774  00000-0  25502-3 0  9993,2 54777  53.2176 351.7255 0001137  72.8135 287.2982 15.08845562 22132,6917.863,95.437,540.515,538.942,0.0
54777.0,STARLINK-5468,PAYLOAD,2023-05-13 20:57:35,15.08846569,9.36e-05,53.2167,351.4313,91.6622,268.4478,0.00026606,3.95e-05,0.0,0 STARLINK-5468,1 54777U 22175V   23133.87332876  .00003950  00000-0  26606-3 0  9993,2 54777  53.2167 351.4313 0000936  91.6622 268.4478 15.08846569 24300,6917.86,95.437,540.373,539.078,0.0
54777.0,STARLINK-5468,PAYLOAD,2023-05-14 14:26:50,15.08843235,8.59e-05,53.216,348.1614,83.2741,276.8349,9.985e-05,1.302e-05,0.0,0 STARLINK-5468,1 54777U 22175V   23134.60196906  .00001302  00000-0  99850-4 0  9998,2 54777  53.2160 348.1614 0000859  83.2741 276.8349 15.08843235 24412,6917.871,95.437,540.33,539.141,0.0
54777.0,STARLINK-5468,PAYLOAD,2023-05-14 20:48:22,15.08845988,9.51e-05,53.2173,346.9692,102.2037,257.9061,0.00012125,1.643e-05,0.0,0 STARLINK-5468,1 54777U 22175V   23134.86692661  .00001643  00000-0  12125-3 0  9992,2 54777  53.2173 346.9692 0000951 102.2037 257.9061 15.08845988 22293,6917.862,95.437,540.385,539.069,0.0
54777.0,STARLINK-5468,PAYLOAD,2023-05-14 23:59:09,15.08834007,0.0001006,53.2174,346.3746,105.5036,254.6067,0.00047368,7.258e-05,0.0,0 STARLINK-5468,1 54777U 22175V   23134.99941261  .00007258  00000-0  47368-3 0  9994,2 54777  53.2174 346.3746 0001006 105.5036 254.6067 15.08834007 22318,6917.899,95.438,540.46,539.068,0.0
54777.0,STARLINK-5468,PAYLOAD,2023-05-15 20:39:10,15.08843623,8.1e-05,53.2183,342.515,81.7548,278.3536,-7.8154e-05,-1.531e-05,0.0,0 STARLINK-5468,1 54777U 22175V   23135.86053273 -.00001531  00000-0 -78154-4 0  9996,2 54777  53.2183 342.5150 0000810  81.7548 278.3536 15.08843623 24602,6917.869,95.437,540.295,539.174,0.0
54777.0,STARLINK-5468,PAYLOAD,2023-05-16 06:11:28,15.08839105,8.15e-05,53.2168,340.7273,84.6117,275.4968,4.4267e-05,4.17e-06,0.0,0 STARLINK-5468,1 54777U 22175V   23136.25797249  .00000417  00000-0  44267-4 0  9996,2 54777  53.2168 340.7273 0000815  84.6117 275.4968 15.08839105 22504,6917.883,95.438,540.312,539.184,0.0
54777.0,STARLINK-5468,PAYLOAD,2023-05-16 20:29:57,15.08838334,7.63e-05,53.2168,338.0511,88.9584,271.1496,8.2496e-05,1.025e-05,0.0,0 STARLINK-5468,1 54777U 22175V   23136.85413228  .00001025  00000-0  82496-4 0  9996,2 54777  53.2168 338.0511 0000763  88.9584 271.1496 15.08838334 24757,6917.885,95.438,540.278,539.223,0.0
54777.0,STARLINK-5468,PAYLOAD,2023-05-17 02:51:30,15.08829236,9e-05,53.2176,336.8609,91.283,268.8266,-1.3743e-05,-5.06e-06,0.0,0 STARLINK-5468,1 54777U 22175V   23137.11910012 -.00000506  00000-0 -13743-4 0  9993,2 54777  53.2176 336.8609 0000900  91.2830 268.8266 15.08829236 22638,6917.913,95.438,540.401,539.156,0.0
54777.0,STARLINK-5468,PAYLOAD,2023-05-17 18:45:21,15.08837328,8.42e-05,53.2175,333.887,86.8266,273.2822,0.00012053,1.631e-05,0.0,0 STARLINK-5468,1 54777U 22175V   23137.78149589  .00001631  00000-0  12053-3 0  9999,2 54777  53.2175 333.8870 0000842  86.8266 273.2822 15.08837328 22732,6917.889,95.438,540.336,539.171,0.0
54777.0,STARLINK-5468,PAYLOAD,2023-05-17 20:20:44,15.08840657,8.24e-05,53.2168,333.5906,84.438,275.6706,0.00011474,1.539e-05,0.0,0 STARLINK-5468,1 54777U 22175V   23137.84773255  .00001539  00000-0  11474-3 0  9992,2 54777  53.2168 333.5906 0000824  84.4380 275.6706 15.08840657 24909,6917.878,95.438,540.313,539.173,0.0
54777.0,STARLINK-5468,PAYLOAD,2023-05-18 05:53:02,15.0884008,8.44e-05,53.2168,331.8063,84.4847,275.6242,9.5383e-05,1.231e-05,0.0,0 STARLINK-5468,1 54777U 22175V   23138.24517341  .00001231  00000-0  95383-4 0  9990,2 54777  53.2168 331.8063 0000844  84.4847 275.6242 15.08840080 24965,6917.88,95.438,540.329,539.161,0.0
54777.0,STARLINK-5468,PAYLOAD,2023-05-18 21:46:54,15.08842324,7.83e-05,53.2164,328.8326,85.5665,274.5416,6.9322e-05,8.16e-06,0.0,0 STARLINK-5468,1 54777U 22175V   23138.90757183  .00000816  00000-0  69322-4 0  9995,2 54777  53.2164 328.8326 0000783  85.5665 274.5416 15.08842324 25067,6917.873,95.437,540.28,539.197,0.0
54777.0,STARLINK-5468,PAYLOAD,2023-05-19 20:02:17,15.08848709,7.31e-05,53.2163,324.6694,83.3867,276.7208,-4.4039e-05,-9.89e-06,0.0,0 STARLINK-5468,1 54777U 22175V   23139.83492919 -.00000989  00000-0 -44039-4 0  9992,2 54777  53.2163 324.6694 0000731  83.3867 276.7208 15.08848709 25203,6917.854,95.437,540.224,539.213,0.0
54777.0,STARLINK-5468,PAYLOAD,2023-05-20 05:34:36,15.08847677,8.25e-05,53.2167,322.8855,80.649,279.4596,0.00017335,2.473e-05,0.0,0 STARLINK-5468,1 54777U 22175V   23140.23237169  .00002473  00000-0  17335-3 0  9998,2 54777  53.2167 322.8855 0000825  80.6490 279.4596 15.08847677 23102,6917.857,95.437,540.293,539.151,0.0
54777.0,STARLINK-5468,PAYLOAD,2023-05-20 18:17:41,15.08849298,6.92e-05,53.2162,320.5068,80.7369,279.3702,0.00025895,3.837e-05,0.0,0 STARLINK-5468,1 54777U 22175V   23140.76229004  .00003837  00000-0  25895-3 0  9990,2 54777  53.2162 320.5068 0000692  80.7369 279.3702 15.08849298 25343,6917.852,95.437,540.196,539.238,0.0
54777.0,STARLINK-5468,PAYLOAD,2023-05-21 05:25:23,15.08844993,9.18e-05,53.2166,318.4254,79.934,280.1756,0.00015147,2.124e-05,0.0,0 STARLINK-5468,1 54777U 22175V   23141.22597206  .00002124  00000-0  15147-3 0  9991,2 54777  53.2166 318.4254 0000918  79.9340 280.1756 15.08844993 23254,6917.865,95.437,540.365,539.095,0.0
54777.0,STARLINK-5468,PAYLOAD,2023-05-21 18:08:29,15.08826753,7.95e-05,53.2163,316.0459,99.4169,260.6913,-0.00013724,-2.47e-05,0.0,0 STARLINK-5468,1 54777U 22175V   23141.75590102 -.00002470  00000-0 -13724-3 0  9992,2 54777  53.2163 316.0459 0000795  99.4169 260.6913 15.08826753 23332,6917.921,95.438,540.336,539.236,0.0
54777.0,STARLINK-5468,PAYLOAD,2023-05-22 11:37:44,15.08844811,8.22e-05,53.2168,312.7741,104.627,255.4813,0.00028171,4.199e-05,0.0,0 STARLINK-5468,1 54777U 22175V   23142.48453746  .00004199  00000-0  28171-3 0  9995,2 54777  53.2168 312.7741 0000822 104.6270 255.4813 15.08844811 25605,6917.866,95.437,540.299,539.162,0.0
54777.0,STARLINK-5468,PAYLOAD,2023-05-22 16:23:53,15.08853088,8.06e-05,53.2163,311.8826,101.7552,258.3531,0.00090548,0.00014157,0.0,0 STARLINK-5468,1 54777U 22175V   23142.68325858  .00014157  00000-0  90548-3 0  9991,2 54777  53.2163 311.8826 0000806 101.7552 258.3531 15.08853088 23475,6917.84,95.437,540.263,539.148,0.0
54777.0,STARLINK-5468,PAYLOAD,2023-05-22 21:10:02,15.08864067,8.53e-05,53.2169,310.9898,104.7098,255.3988,0.0010673,0.0001675,0.0,0 STARLINK-5468,1 54777U 22175V   23142.88197547  .00016750  00000-0  10673-2 0  9996,2 54777  53.2169 310.9898 0000853 104.7098 255.3988 15.08864067 25665,6917.807,95.436,540.262,539.082,0.0
54777.0,STARLINK-5468,PAYLOAD,2023-05-23 01:56:12,15.08833193,0.0001091,53.2167,310.1061,48.345,311.7636,-0.00010878,-2.018e-05,0.0,0 STARLINK-5468,1 54777U 22175V   23143.08070049 -.00002018  00000-0 -10878-3 0  9998,2 54777  53.2167 310.1061 0001091  48.3450 311.7636 15.08833193 23534,6917.901,95.438,540.521,539.011,0.0
54777.0,STARLINK-5468,PAYLOAD,2023-05-23 11:28:31,15.08844161,7.36e-05,53.217,308.3141,111.252,248.8551,0.00015454,2.173e-05,0.0,0 STARLINK-5468,1 54777U 22175V   23143.47813816  .00002173  00000-0  15454-3 0  9993,2 54777  53.2170 308.3141 0000736 111.2520 248.8551 15.08844161 23598,6917.868,95.437,540.242,539.224,0.0
54777.0,STARLINK-5468,PAYLOAD,2023-05-23 22:36:13,15.08847237,6.61e-05,53.2171,306.2337,115.5607,244.5453,0.0012466,0.00019611,0.0,0 STARLINK-5468,1 54777U 22175V   23143.94181877  .00019611  00000-0  12466-2 0  9994,2 54777  53.2171 306.2337 0000661 115.5607 244.5453 15.08847237 25822,6917.858,95.437,540.181,539.266,0.0
